NORAD_CAT_ID,OBJECT_NAME,OBJECT_TYPE,EPOCH,MEAN_MOTION,ECCENTRICITY,INCLINATION,RA_OF_ASC_NODE,ARG_OF_PERICENTER,MEAN_ANOMALY,BSTAR,MEAN_MOTION_DOT,MEAN_MOTION_DDOT,TLE_LINE0,TLE_LINE1,TLE_LINE2,SEMIMAJOR_AXIS,PERIOD,APOGEE,PERIGEE,DECAYED
56774.0,STARLINK-6190,PAYLOAD,2023-07-07 20:00:01,15.5130197,0.0003465,69.9982,308.0789,276.3378,125.4258,-0.0020563,-0.00119482,0.0,0 STARLINK-6190,1 56774U 23078H   23188.83334491 -.00119482  00000-0 -20563-2 0  9991,2 56774  69.9982 308.0789 0003465 276.3378 125.4258 15.51301970  6198,6791.061,92.825,415.279,410.573,0.0
56774.0,STARLINK-6190,PAYLOAD,2023-07-08 04:00:00,15.51169693,0.0003433,69.9984,307.1672,269.9473,192.7832,0.0016363,0.00096948,0.0,0 STARLINK-6190,1 56774U 23078H   23189.16667824  .00096948  00000-0  16363-2 0  9999,2 56774  69.9984 307.1672 0003433 269.9473 192.7832 15.51169693  6245,6791.447,92.833,415.643,410.98,0.0
56774.0,STARLINK-6190,PAYLOAD,2023-07-08 12:00:00,15.51252077,0.0003458,69.9986,306.2563,272.6026,251.0149,-0.00092555,-0.00054216,0.0,0 STARLINK-6190,1 56774U 23078H   23189.50001157 -.00054216  00000-0 -92555-3 0  9990,2 56774  69.9986 306.2563 0003458 272.6026 251.0149 15.51252077  6292,6791.206,92.828,415.42,410.723,0.0
56774.0,STARLINK-6190,PAYLOAD,2023-07-09 04:00:00,15.51381547,0.0003688,69.998,304.4329,266.5336,18.9045,-0.012787,-0.00692888,0.0,0 STARLINK-6190,1 56774U 23078H   23190.16667824 -.00692888  00000-0 -12787-1 0  9993,2 56774  69.9980 304.4329 0003688 266.5336  18.9045 15.51381547  6400,6790.828,92.82,415.198,410.189,0.0
56774.0,STARLINK-6190,PAYLOAD,2023-07-09 12:00:00,15.50861155,0.0003538,69.9982,303.5215,269.2954,76.958,-0.017271,-0.00909224,0.0,0 STARLINK-6190,1 56774U 23078H   23190.50001157 -.00909224  00000-0 -17271-1 0  9990,2 56774  69.9982 303.5215 0003538 269.2954  76.9580 15.50861155  6456,6792.347,92.852,416.616,411.809,0.0
56774.0,STARLINK-6190,PAYLOAD,2023-07-10 12:00:00,15.48894463,0.0003293,69.9984,300.7925,269.9811,254.1911,-0.018159,-0.00893021,0.0,0 STARLINK-6190,1 56774U 23078H   23191.50001157 -.00893021  00000-0 -18159-1 0  9994,2 56774  69.9984 300.7925 0003293 269.9811 254.1911 15.48894463  6602,6798.096,92.97,422.2,417.722,0.0
56774.0,STARLINK-6190,PAYLOAD,2023-07-11 04:00:00,15.47584081,0.0003289,69.9977,298.9778,268.343,10.5194,-0.018255,-0.00860489,0.0,0 STARLINK-6190,1 56774U 23078H   23192.16667824 -.00860489  00000-0 -18255-1 0  9995,2 56774  69.9977 298.9778 0003289 268.3430  10.5194 15.47584081  6713,6801.933,93.048,426.035,421.561,0.0
56774.0,STARLINK-6190,PAYLOAD,2023-07-11 12:00:00,15.46940223,0.0003366,69.9979,298.0717,272.9345,62.1106,-0.019557,-0.00910051,0.0,0 STARLINK-6190,1 56774U 23078H   23192.50001157 -.00910051  00000-0 -19557-1 0  9991,2 56774  69.9979 298.0717 0003366 272.9345  62.1106 15.46940223  6765,6803.82,93.087,427.975,423.395,0.0
56774.0,STARLINK-6190,PAYLOAD,2023-07-12 12:00:00,15.44985498,0.0003224,69.9979,295.3584,271.2917,227.5864,-0.021017,-0.00913903,0.0,0 STARLINK-6190,1 56774U 23078H   23193.50001157 -.00913903  00000-0 -21017-1 0  9995,2 56774  69.9979 295.3584 0003224 271.2917 227.5864 15.44985498  6913,6809.558,93.205,433.618,429.227,0.0
56774.0,STARLINK-6190,PAYLOAD,2023-07-13 18:00:00,15.42550474,0.0003258,69.9978,291.9786,273.1943,330.5647,-0.022827,-0.00913878,0.0,0 STARLINK-6190,1 56774U 23078H   23194.75001157 -.00913878  00000-0 -22827-1 0  9994,2 56774  69.9978 291.9786 0003258 273.1943 330.5647 15.42550474  7112,6816.722,93.352,440.808,436.366,0.0
56774.0,STARLINK-6190,PAYLOAD,2023-07-14 12:00:00,15.41070244,0.0003448,69.9981,289.9573,273.7969,171.6271,-0.023878,-0.00910096,0.0,0 STARLINK-6190,1 56774U 23078H   23195.50001157 -.00910096  00000-0 -23878-1 0  9994,2 56774  69.9981 289.9573 0003448 273.7969 171.6271 15.41070244  7222,6821.086,93.442,445.303,440.6,0.0
56774.0,STARLINK-6190,PAYLOAD,2023-07-15 12:00:00,15.39112447,0.0003477,69.9984,287.2685,272.4841,315.6519,-0.025469,-0.00909849,0.0,0 STARLINK-6190,1 56774U 23078H   23196.50001157 -.00909849  00000-0 -25469-1 0  9997,2 56774  69.9984 287.2685 0003477 272.4841 315.6519 15.39112447  7388,6826.87,93.56,451.108,446.361,0.0
56774.0,STARLINK-6190,PAYLOAD,2023-07-16 12:00:00,15.3715638,0.000362,69.9983,284.5876,273.2542,90.551,-0.027092,-0.00908096,0.0,0 STARLINK-6190,1 56774U 23078H   23197.50001157 -.00908096  00000-0 -27092-1 0  9995,2 56774  69.9983 284.5876 0003620 273.2542  90.5510 15.37156380  7535,6832.66,93.679,456.998,452.052,0.0
56774.0,STARLINK-6190,PAYLOAD,2023-07-17 12:00:00,15.35186816,0.0003432,69.998,281.915,274.4946,217.945,-0.028144,-0.00887022,0.0,0 STARLINK-6190,1 56774U 23078H   23198.50001157 -.00887022  00000-0 -28144-1 0  9990,2 56774  69.9980 281.9150 0003432 274.4946 217.9450 15.35186816  7689,6838.503,93.8,462.715,458.021,0.0
56774.0,STARLINK-6190,PAYLOAD,2023-07-18 04:00:00,15.33907144,0.0003234,69.9977,280.1379,266.4286,307.8364,-0.029963,-0.00904957,0.0,0 STARLINK-6190,1 56774U 23078H   23199.16667824 -.00904957  00000-0 -29963-1 0  9999,2 56774  69.9977 280.1379 0003234 266.4286 307.8364 15.33907144  7795,6842.306,93.878,466.383,461.958,0.0
56774.0,STARLINK-6190,PAYLOAD,2023-07-18 20:00:01,15.32626639,0.0003333,69.9972,278.3641,272.3163,20.6608,-0.033499,-0.00978429,0.0,0 STARLINK-6190,1 56774U 23078H   23199.83334491 -.00978429  00000-0 -33499-1 0  9998,2 56774  69.9972 278.3641 0003333 272.3163  20.6608 15.32626639  7899,6846.116,93.956,470.263,465.699,0.0
56774.0,STARLINK-6190,PAYLOAD,2023-07-19 04:00:00,15.31955169,0.0003386,69.9975,277.4787,266.2709,64.8895,-0.032176,-0.00913008,0.0,0 STARLINK-6190,1 56774U 23078H   23200.16667824 -.00913008  00000-0 -32176-1 0  9999,2 56774  69.9975 277.4787 0003386 266.2709  64.8895 15.31955169  7945,6848.116,93.998,472.3,467.663,0.0
56774.0,STARLINK-6190,PAYLOAD,2023-07-19 20:00:01,15.30672541,0.0003321,69.997,275.71,273.3988,131.7805,-0.035795,-0.00983047,0.0,0 STARLINK-6190,1 56774U 23078H   23200.83334491 -.00983047  00000-0 -35795-1 0  9994,2 56774  69.9970 275.7100 0003321 273.3988 131.7805 15.30672541  8043,6851.942,94.076,476.082,471.531,0.0
56774.0,STARLINK-6190,PAYLOAD,2023-07-20 04:00:00,15.30006229,0.0003253,69.9972,274.8271,268.9028,172.1112,-0.034743,-0.00926431,0.0,0 STARLINK-6190,1 56774U 23078H   23201.16667824 -.00926431  00000-0 -34743-1 0  9996,2 56774  69.9972 274.8271 0003253 268.9028 172.1112 15.30006229  8092,6853.931,94.117,478.025,473.566,0.0
56774.0,STARLINK-6190,PAYLOAD,2023-07-21 04:00:00,15.28055908,0.0003117,69.9969,272.1833,266.8773,276.9496,-0.037363,-0.00949056,0.0,0 STARLINK-6190,1 56774U 23078H   23202.16667824 -.00949056  00000-0 -37363-1 0  9996,2 56774  69.9969 272.1833 0003117 266.8773 276.9496 15.28055908  8257,6859.761,94.237,483.765,479.488,0.0
56774.0,STARLINK-6190,PAYLOAD,2023-07-24 14:00:01,15.21335696,0.0003038,69.9966,263.2082,273.0476,298.9567,-0.043032,-0.00897215,0.0,0 STARLINK-6190,1 56774U 23078H   23205.58334491 -.00897215  00000-0 -43032-1 0  9995,2 56774  69.9966 263.2082 0003038 273.0476 298.9567 15.21335696  2247,6879.948,94.654,503.903,499.723,0.0
56774.0,STARLINK-6190,PAYLOAD,2023-07-25 14:00:01,15.19383101,0.0003128,69.9967,260.5988,272.3338,11.4517,-0.045948,-0.00904304,0.0,0 STARLINK-6190,1 56774U 23078H   23206.58335648 -.00904304  00000-0 -45948-1 0  9997,2 56774  69.9967 260.5988 0003128 272.3338  11.4517 15.19383101  2404,6885.841,94.775,509.86,505.552,0.0
56774.0,STARLINK-6190,PAYLOAD,2023-07-26 14:00:01,15.17429748,0.0003197,69.9968,257.9972,273.9309,74.4691,-0.048957,-0.00910147,0.0,0 STARLINK-6190,1 56774U 23078H   23207.58334491 -.00910147  00000-0 -48957-1 0  9998,2 56774  69.9968 257.9972 0003197 273.9309  74.4691 15.17429748  2553,6891.749,94.897,515.817,511.411,0.0
56774.0,STARLINK-6190,PAYLOAD,2023-07-26 22:00:01,15.16740773,0.0003171,69.9968,257.1318,268.5665,99.906,-0.046749,-0.00855954,0.0,0 STARLINK-6190,1 56774U 23078H   23207.91668981 -.00855954  00000-0 -46749-1 0  9990,2 56774  69.9968 257.1318 0003171 268.5665  99.9060 15.16740773  2607,6893.836,94.94,517.887,513.515,0.0
56774.0,STARLINK-6190,PAYLOAD,2023-07-27 04:00:00,15.16325114,0.0003195,69.997,256.4834,265.8674,26.9984,-0.054124,-0.0096992,0.0,0 STARLINK-6190,1 56774U 23078H   23208.16667824 -.00969920  00000-0 -54124-1 0  9998,2 56774  69.9970 256.4834 0003195 265.8674  26.9984 15.16325114  9162,6895.096,94.966,519.164,514.758,0.0
56774.0,STARLINK-6190,PAYLOAD,2023-07-27 14:00:01,15.15474784,0.0003171,69.9968,255.4036,276.1008,129.9372,-0.051971,-0.00913356,0.0,0 STARLINK-6190,1 56774U 23078H   23208.58334491 -.00913356  00000-0 -51971-1 0  9994,2 56774  69.9968 255.4036 0003171 276.1008 129.9372 15.15474784  2707,6897.675,95.02,521.727,517.352,0.0
56774.0,STARLINK-6190,PAYLOAD,2023-07-27 20:00:01,15.14972816,0.0003085,69.9968,254.7565,270.5174,58.839,-0.052499,-0.00909821,0.0,0 STARLINK-6190,1 56774U 23078H   23208.83334491 -.00909821  00000-0 -52499-1 0  9990,2 56774  69.9968 254.7565 0003085 270.5174  58.8390 15.14972816  9268,6899.198,95.051,523.191,518.935,0.0
56774.0,STARLINK-6190,PAYLOAD,2023-07-27 22:00:00,15.1478184,0.0003132,69.9969,254.5408,269.8755,153.8253,-0.04909,-0.00850406,0.0,0 STARLINK-6190,1 56774U 23078H   23208.91667824 -.00850406  00000-0 -49090-1 0  9995,2 56774  69.9969 254.5408 0003132 269.8755 153.8253 15.14781840  2769,6899.778,95.063,523.804,519.482,0.0
56774.0,STARLINK-6190,PAYLOAD,2023-07-28 14:00:01,15.13518315,0.0003104,69.9967,252.8179,277.2425,179.3937,-0.055006,-0.00914505,0.0,0 STARLINK-6190,1 56774U 23078H   23209.58334491 -.00914505  00000-0 -55006-1 0  9995,2 56774  69.9967 252.8179 0003104 277.2425 179.3937 15.13518315  2866,6903.617,95.143,527.625,523.34,0.0
56774.0,STARLINK-6190,PAYLOAD,2023-07-28 20:00:01,15.13009943,0.0003098,69.9967,252.1727,271.553,106.6431,-0.0548,-0.00899306,0.0,0 STARLINK-6190,1 56774U 23078H   23209.83334491 -.00899306  00000-0 -54800-1 0  9995,2 56774  69.9967 252.1727 0003098 271.5530 106.6431 15.13009943  9416,6905.164,95.175,529.168,524.89,0.0
